ONEWEB-0336             
1 49202U 21083S   26163.00240428 -.00000407  00000+0 -11493-2 0  9991
2 49202  87.8949 321.2602 0002251  94.4103 265.7283 13.13470194230237
ONEWEB-0337             
1 49203U 21083T   26162.93625103 -.00000213  00000+0 -61750-3 0  9997
2 49203  87.8944 321.2797 0001992  98.6878 261.4477 13.13470194230221
ONEWEB-0338             
1 49204U 21083U   26163.26843597 -.00000749  00000+0 -18744-2 0  9992
2 49204  87.9185 275.4296 0001631 100.7975 259.3342 13.20778328236161
ONEWEB-0339             
1 49205U 21083V   26163.17338233 -.00000161  00000+0 -47541-3 0  9995
2 49205  87.8946 321.2250 0001590 102.4107 257.7200 13.13470162230230
ONEWEB-0340             
1 49206U 21083W   26163.20155456 -.00000026  00000+0 -99857-4 0  9992
2 49206  87.9167 336.4473 0002007  91.2830 268.8532 13.18684907229311
ONEWEB-0341             
1 49207U 21083X   26163.20830079 -.00000001  00000+0 -34371-4 0  9997
2 49207  87.9160 336.4494 0002175 103.5127 256.6248 13.18685429229331
ONEWEB-0342             
1 49208U 21083Y   26163.27516692  .00000044  00000+0  75796-4 0  9998
2 49208  87.9192 275.4157 0001899 102.9181 257.2165 13.20770628236130
ONEWEB-0343             
1 49209U 21083Z   26163.21673526  .00000015  00000+0  53396-5 0  9994
2 49209  87.9164 336.4464 0001555 102.4080 257.7226 13.18685762229384
ONEWEB-0344             
1 49210U 21083AA  26163.16829854 -.00000235  00000+0 -67749-3 0  9998
2 49210  87.8938 321.2408 0002086 104.4174 255.7187 13.13472350230232
ONEWEB-0345             
1 49211U 21083AB  26163.15983243 -.00000257  00000+0 -73931-3 0  9995
2 49211  87.8954 321.2224 0002012 103.8269 256.3084 13.13471169230245
ONEWEB-0346             
1 49212U 21083AC  26163.21335901  .00000059  00000+0  11647-3 0  9999
2 49212  87.9157 336.4477 0002415  82.9524 277.1882 13.18685334229328
ONEWEB-0348             
1 49213U 21083AD  26163.26506340  .00000099  00000+0  21202-3 0  9994
2 49213  87.9192 275.4214 0002498  99.4035 260.7381 13.20770557236167
ONEWEB-0350             
1 49214U 21083AE  26162.94585717 -.00000055  00000+0 -18575-3 0  9997
2 49214  87.8953 321.2689 0002057 100.5155 259.6205 13.12943676230246
ONEWEB-0351             
1 49215U 21083AF  26163.25818186  .00000113  00000+0  24689-3 0  9998
2 49215  87.9193 275.4214 0001825 127.0961 233.0340 13.20770489236127
ONEWEB-0352             
1 49216U 21083AG  26163.14968392 -.00000246  00000+0 -70755-3 0  9996
2 49216  87.8949 321.2357 0001548 106.4381 253.6919 13.13469874230368
ONEWEB-0354             
1 49217U 21083AH  26163.28527191  .00000004  00000+0 -21319-4 0  9994
2 49217  87.9193 275.4152 0002374 102.3911 257.7489 13.20772393236168
ONEWEB-0355             
1 49218U 21083AJ  26163.17860304  .00000065  00000+0  14328-3 0  9996
2 49218  87.8941 321.2317 0001819 103.5288 256.6043 13.13470368230241
ONEWEB-0357             
1 49219U 21083AK  26163.28190362  .00000037  00000+0  58997-4 0  9999
2 49219  87.9191 275.4099 0001885 106.3173 253.8167 13.20772144236162
ONEWEB-0332             
1 49279U 21090A   26163.11873409  .00000238  00000+0  60785-3 0  9995
2 49279  87.8962 290.7193 0001663  98.9296 261.2022 13.14501574226919
ONEWEB-0347             
1 49280U 21090B   26163.27180028  .00000115  00000+0  24976-3 0  9998
2 49280  87.9192 275.4201 0001732  98.2609 261.8721 13.20771209230395
ONEWEB-0349             
1 49281U 21090C   26163.30379151  .00000011  00000+0 -56093-5 0  9993
2 49281  87.9190 275.4143 0001988 101.4249 258.7108 13.20772381229180
ONEWEB-0353             
1 49282U 21090D   26163.26305561  .00000272  00000+0  69806-3 0  9995
2 49282  87.8961 290.6861 0001634  97.5586 262.5730 13.14503173226937
ONEWEB-0356             
1 49283U 21090E   26163.30210399  .00000007  00000+0 -13819-4 0  9996
2 49283  87.9190 275.4080 0002220  79.3389 280.7995 13.20773502229185
ONEWEB-0358             
1 49284U 21090F   26163.25727038  .00000126  00000+0  27918-3 0  9999
2 49284  87.9194 275.4215 0002135  96.8588 263.2788 13.20237210229907
ONEWEB-0359             
1 49285U 21090G   26163.25328293  .00000072  00000+0  14563-3 0  9992
2 49285  87.9190 275.4176 0002263 101.2044 258.9343 13.20773068229881
ONEWEB-0360             
1 49286U 21090H   26163.24318663  .00000008  00000+0 -13060-4 0  9994
2 49286  87.9191 275.4255 0002031 103.4171 256.7189 13.20773106229190
ONEWEB-0361             
1 49287U 21090J   26163.30041373  .00000003  00000+0 -24433-4 0  9994
2 49287  87.9191 275.4128 0002094  98.9689 261.1682 13.20770928229659
ONEWEB-0362             
1 49288U 21090K   26163.09749628  .00000020  00000+0  16731-4 0  9999
2 49288  87.9165 305.9921 0001832 106.5639 253.5695 13.19724589226242
ONEWEB-0363             
1 49289U 21090L   26163.23980418  .00000042  00000+0  72422-4 0  9993
2 49289  87.9191 275.4251 0002098  92.0988 268.0386 13.20770723229659
ONEWEB-0364             
1 49290U 21090M   26163.27853141  .00000056  00000+0  10618-3 0  9994
2 49290  87.9190 275.4254 0001980 101.1073 259.0283 13.20771124230798
