OBJECT_NAME,OBJECT_ID,EPOCH,MEAN_MOTION,ECCENTRICITY,INCLINATION,RA_OF_ASC_NODE,ARG_OF_PERICENTER,MEAN_ANOMALY,EPHEMERIS_TYPE,CLASSIFICATION_TYPE,NORAD_CAT_ID,ELEMENT_SET_NO,REV_AT_EPOCH,BSTAR,MEAN_MOTION_DOT,MEAN_MOTION_DDOT
ONEWEB-0336,2021-083S,2026-06-12T00:03:27.729792,13.13470194,.00022516,87.8949,321.2602,94.4103,265.7283,0,U,49202,999,23023,-.11493383E-2,-.407E-5,0
ONEWEB-0337,2021-083T,2026-06-11T22:28:12.088992,13.13470194,.00019922,87.8944,321.2797,98.6878,261.4477,0,U,49203,999,23022,-.61749968E-3,-.213E-5,0
ONEWEB-0338,2021-083U,2026-06-12T06:26:32.867808,13.20778328,.0001631,87.9185,275.4296,100.7975,259.3342,0,U,49204,999,23616,-.18744361E-2,-.749E-5,0
ONEWEB-0339,2021-083V,2026-06-12T04:09:40.233312,13.13470162,.00015907,87.8946,321.2250,102.4107,257.7200,0,U,49205,999,23023,-.47541073E-3,-.161E-5,0
ONEWEB-0340,2021-083W,2026-06-12T04:50:14.313984,13.18684907,.00020079,87.9167,336.4473,91.2830,268.8532,0,U,49206,999,22931,-.99856668E-4,-.26E-6,0
ONEWEB-0341,2021-083X,2026-06-12T04:59:57.188256,13.18685429,.00021753,87.9160,336.4494,103.5127,256.6248,0,U,49207,999,22933,-.34370808E-4,-.1E-7,0
ONEWEB-0342,2021-083Y,2026-06-12T06:36:14.421888,13.20770628,.00018997,87.9192,275.4157,102.9181,257.2165,0,U,49208,999,23613,.75795782E-4,.44E-6,0
ONEWEB-0343,2021-083Z,2026-06-12T05:12:05.926464,13.18685762,.00015553,87.9164,336.4464,102.4080,257.7226,0,U,49209,999,22938,.5339606E-5,.15E-6,0
ONEWEB-0344,2021-083AA,2026-06-12T04:02:20.993856,13.13472350,.00020865,87.8938,321.2408,104.4174,255.7187,0,U,49210,999,23023,-.67749366E-3,-.235E-5,0
ONEWEB-0345,2021-083AB,2026-06-12T03:50:09.521952,13.13471169,.00020123,87.8954,321.2224,103.8269,256.3084,0,U,49211,999,23024,-.73930595E-3,-.257E-5,0
ONEWEB-0346,2021-083AC,2026-06-12T05:07:14.218464,13.18685334,.00024151,87.9157,336.4477,82.9524,277.1882,0,U,49212,999,22932,.11647107E-3,.59E-6,0
ONEWEB-0348,2021-083AD,2026-06-12T06:21:41.477760,13.20770557,.00024983,87.9192,275.4214,99.4035,260.7381,0,U,49213,999,23616,.21201899E-3,.99E-6,0
ONEWEB-0350,2021-083AE,2026-06-11T22:42:02.059488,13.12943676,.00020572,87.8953,321.2689,100.5155,259.6205,0,U,49214,999,23024,-.18575276E-3,-.55E-6,0
ONEWEB-0351,2021-083AF,2026-06-12T06:11:46.912704,13.20770489,.00018251,87.9193,275.4214,127.0961,233.0340,0,U,49215,999,23612,.24688649E-3,.113E-5,0
ONEWEB-0352,2021-083AG,2026-06-12T03:35:32.690688,13.13469874,.00015482,87.8949,321.2357,106.4381,253.6919,0,U,49216,999,23036,-.70755176E-3,-.246E-5,0
ONEWEB-0354,2021-083AH,2026-06-12T06:50:47.493024,13.20772393,.00023743,87.9193,275.4152,102.3911,257.7489,0,U,49217,999,23616,-.21318933E-4,.4E-7,0
ONEWEB-0355,2021-083AJ,2026-06-12T04:17:11.302656,13.13470368,.0001819,87.8941,321.2317,103.5288,256.6043,0,U,49218,999,23024,.14327828E-3,.65E-6,0
ONEWEB-0357,2021-083AK,2026-06-12T06:45:56.472768,13.20772144,.00018855,87.9191,275.4099,106.3173,253.8167,0,U,49219,999,23616,.58996958E-4,.37E-6,0
ONEWEB-0332,2021-090A,2026-06-12T02:50:58.625376,13.14501574,.00016632,87.8962,290.7193,98.9296,261.2022,0,U,49279,999,22691,.60784526E-3,.238E-5,0
ONEWEB-0347,2021-090B,2026-06-12T06:31:23.544192,13.20771209,.00017324,87.9192,275.4201,98.2609,261.8721,0,U,49280,999,23039,.24975672E-3,.115E-5,0
ONEWEB-0349,2021-090C,2026-06-12T07:17:27.586464,13.20772381,.00019888,87.9190,275.4143,101.4249,258.7108,0,U,49281,999,22918,-.5609341E-5,.11E-6,0
ONEWEB-0353,2021-090D,2026-06-12T06:18:48.004704,13.14503173,.00016346,87.8961,290.6861,97.5586,262.5730,0,U,49282,999,22693,.69805605E-3,.272E-5,0
ONEWEB-0356,2021-090E,2026-06-12T07:15:01.784736,13.20773502,.00022203,87.9190,275.4080,79.3389,280.7995,0,U,49283,999,22918,-.13819424E-4,.7E-7,0
ONEWEB-0358,2021-090F,2026-06-12T06:10:28.160832,13.20237210,.00021354,87.9194,275.4215,96.8588,263.2788,0,U,49284,999,22990,.27917791E-3,.126E-5,0
ONEWEB-0359,2021-090G,2026-06-12T06:04:43.645152,13.20773068,.00022633,87.9190,275.4176,101.2044,258.9343,0,U,49285,999,22988,.14562534E-3,.72E-6,0
ONEWEB-0360,2021-090H,2026-06-12T05:50:11.324832,13.20773106,.00020313,87.9191,275.4255,103.4171,256.7189,0,U,49286,999,22919,-.13059654E-4,.8E-7,0
ONEWEB-0361,2021-090J,2026-06-12T07:12:35.746272,13.20770928,.00020944,87.9191,275.4128,98.9689,261.1682,0,U,49287,999,22965,-.24433166E-4,.3E-7,0
ONEWEB-0362,2021-090K,2026-06-12T02:20:23.678592,13.19724589,.00018321,87.9165,305.9921,106.5639,253.5695,0,U,49288,999,22624,.16730716E-4,.2E-6,0
ONEWEB-0363,2021-090L,2026-06-12T05:45:19.081152,13.20770723,.00020988,87.9191,275.4251,92.0988,268.0386,0,U,49289,999,22965,.72422045E-4,.42E-6,0
ONEWEB-0364,2021-090M,2026-06-12T06:41:05.113824,13.20771124,.00019803,87.9190,275.4254,101.1073,259.0283,0,U,49290,999,23079,.10618099E-3,.56E-6,0
